[
  {
    "OBJECT_NAME": "GOES 18",
    "OBJECT_ID": "2022-021A",
    "EPOCH": "2025-04-22T05:18:19.292832",
    "MEAN_MOTION": 1.00270324,
    "ECCENTRICITY": 0.0000258,
    "INCLINATION": 0.0128,
    "RA_OF_ASC_NODE": 101.3784,
    "ARG_OF_PERICENTER": 353.1502,
    "MEAN_ANOMALY": 58.5928,
    "EPHEMERIS_TYPE": 0,
    "CLASSIFICATION_TYPE": "U",
    "NORAD_CAT_ID": 51850,
    "ELEMENT_SET_NO": 999,
    "REV_AT_EPOCH": 1158,
    "BSTAR": 0,
    "MEAN_MOTION_DOT": 9.9e-7,
    "MEAN_MOTION_DDOT": 0
  },
  {
    "OBJECT_NAME": "NOAA 21 (JPSS-2)",
    "OBJECT_ID": "2022-150A",
    "EPOCH": "2025-04-21T21:18:59.352480",
    "MEAN_MOTION": 14.19580587,
    "ECCENTRICITY": 0.0001426,
    "INCLINATION": 98.7242,
    "RA_OF_ASC_NODE": 51.4747,
    "ARG_OF_PERICENTER": 7.5566,
    "MEAN_ANOMALY": 352.5631,
    "EPHEMERIS_TYPE": 0,
    "CLASSIFICATION_TYPE": "U",
    "NORAD_CAT_ID": 54234,
    "ELEMENT_SET_NO": 999,
    "REV_AT_EPOCH": 12677,
    "BSTAR": 0.00011345,
    "MEAN_MOTION_DOT": 0.00000196,
    "MEAN_MOTION_DDOT": 0
  },
  {
    "OBJECT_NAME": "METEOSAT-12 (MTG-I1)",
    "OBJECT_ID": "2022-170C",
    "EPOCH": "2025-04-21T21:20:25.858752",
    "MEAN_MOTION": 1.00268528,
    "ECCENTRICITY": 0.0001121,
    "INCLINATION": 0.6296,
    "RA_OF_ASC_NODE": 33.5056,
    "ARG_OF_PERICENTER": 326.2685,
    "MEAN_ANOMALY": 170.2381,
    "EPHEMERIS_TYPE": 0,
    "CLASSIFICATION_TYPE": "U",
    "NORAD_CAT_ID": 54743,
    "ELEMENT_SET_NO": 999,
    "REV_AT_EPOCH": 875,
    "BSTAR": 0,
    "MEAN_MOTION_DOT": -4e-8,
    "MEAN_MOTION_DDOT": 0
  },
  {
    "OBJECT_NAME": "TIANMU-1 03",
    "OBJECT_ID": "2023-039A",
    "EPOCH": "2025-04-22T04:29:02.231232",
    "MEAN_MOTION": 15.33998075,
    "ECCENTRICITY": 0.0004936,
    "INCLINATION": 97.4961,
    "RA_OF_ASC_NODE": 269.9406,
    "ARG_OF_PERICENTER": 160.3919,
    "MEAN_ANOMALY": 199.7514,
    "EPHEMERIS_TYPE": 0,
    "CLASSIFICATION_TYPE": "U",
    "NORAD_CAT_ID": 55973,
    "ELEMENT_SET_NO": 999,
    "REV_AT_EPOCH": 11603,
    "BSTAR": 0.00060979,
    "MEAN_MOTION_DOT": 0.00020013,
    "MEAN_MOTION_DDOT": 0
  },
  {
    "OBJECT_NAME": "TIANMU-1 04",
    "OBJECT_ID": "2023-039B",
    "EPOCH": "2025-04-22T03:23:31.687008",
    "MEAN_MOTION": 15.34211382,
    "ECCENTRICITY": 0.000587,
    "INCLINATION": 97.4888,
    "RA_OF_ASC_NODE": 269.2139,
    "ARG_OF_PERICENTER": 158.2731,
    "MEAN_ANOMALY": 201.8762,
    "EPHEMERIS_TYPE": 0,
    "CLASSIFICATION_TYPE": "U",
    "NORAD_CAT_ID": 55974,
    "ELEMENT_SET_NO": 999,
    "REV_AT_EPOCH": 11602,
    "BSTAR": 0.00060455,
    "MEAN_MOTION_DOT": 0.00019978,
    "MEAN_MOTION_DDOT": 0
  },
  {
    "OBJECT_NAME": "TIANMU-1 05",
    "OBJECT_ID": "2023-039C",
    "EPOCH": "2025-04-22T05:18:14.846688",
    "MEAN_MOTION": 15.33976411,
    "ECCENTRICITY": 0.0004343,
    "INCLINATION": 97.4935,
    "RA_OF_ASC_NODE": 269.7446,
    "ARG_OF_PERICENTER": 175.0428,
    "MEAN_ANOMALY": 185.0858,
    "EPHEMERIS_TYPE": 0,
    "CLASSIFICATION_TYPE": "U",
    "NORAD_CAT_ID": 55975,
    "ELEMENT_SET_NO": 999,
    "REV_AT_EPOCH": 11602,
    "BSTAR": 0.00059608,
    "MEAN_MOTION_DOT": 0.00019546,
    "MEAN_MOTION_DDOT": 0
  },
  {
    "OBJECT_NAME": "TIANMU-1 06",
    "OBJECT_ID": "2023-039D",
    "EPOCH": "2025-04-22T03:42:28.063008",
    "MEAN_MOTION": 15.34294912,
    "ECCENTRICITY": 0.0004778,
    "INCLINATION": 97.4949,
    "RA_OF_ASC_NODE": 269.9697,
    "ARG_OF_PERICENTER": 173.8747,
    "MEAN_ANOMALY": 186.2554,
    "EPHEMERIS_TYPE": 0,
    "CLASSIFICATION_TYPE": "U",
    "NORAD_CAT_ID": 55976,
    "ELEMENT_SET_NO": 999,
    "REV_AT_EPOCH": 11602,
    "BSTAR": 0.00059362,
    "MEAN_MOTION_DOT": 0.00019663,
    "MEAN_MOTION_DDOT": 0
  },
  {
    "OBJECT_NAME": "METEOR-M2 3",
    "OBJECT_ID": "2023-091A",
    "EPOCH": "2025-04-22T05:17:02.599008",
    "MEAN_MOTION": 14.23993643,
    "ECCENTRICITY": 0.0003147,
    "INCLINATION": 98.6656,
    "RA_OF_ASC_NODE": 169.4064,
    "ARG_OF_PERICENTER": 327.803,
    "MEAN_ANOMALY": 32.2956,
    "EPHEMERIS_TYPE": 0,
    "CLASSIFICATION_TYPE": "U",
    "NORAD_CAT_ID": 57166,
    "ELEMENT_SET_NO": 999,
    "REV_AT_EPOCH": 9460,
    "BSTAR": 0.000041857,
    "MEAN_MOTION_DOT": 5.2e-7,
    "MEAN_MOTION_DDOT": 0
  },
  {
    "OBJECT_NAME": "TIANMU-1 07",
    "OBJECT_ID": "2023-101A",
    "EPOCH": "2025-04-22T04:13:08.074560",
    "MEAN_MOTION": 15.24390997,
    "ECCENTRICITY": 0.0004895,
    "INCLINATION": 97.3157,
    "RA_OF_ASC_NODE": 167.383,
    "ARG_OF_PERICENTER": 165.3807,
    "MEAN_ANOMALY": 194.7573,
    "EPHEMERIS_TYPE": 0,
    "CLASSIFICATION_TYPE": "U",
    "NORAD_CAT_ID": 57399,
    "ELEMENT_SET_NO": 999,
    "REV_AT_EPOCH": 9738,
    "BSTAR": 0.00045901,
    "MEAN_MOTION_DOT": 0.00011188,
    "MEAN_MOTION_DDOT": 0
  },
  {
    "OBJECT_NAME": "TIANMU-1 08",
    "OBJECT_ID": "2023-101B",
    "EPOCH": "2025-04-22T04:59:12.228288",
    "MEAN_MOTION": 15.24398896,
    "ECCENTRICITY": 0.0006786,
    "INCLINATION": 97.3147,
    "RA_OF_ASC_NODE": 167.2489,
    "ARG_OF_PERICENTER": 175.2251,
    "MEAN_ANOMALY": 184.9052,
    "EPHEMERIS_TYPE": 0,
    "CLASSIFICATION_TYPE": "U",
    "NORAD_CAT_ID": 57400,
    "ELEMENT_SET_NO": 999,
    "REV_AT_EPOCH": 9738,
    "BSTAR": 0.00043846,
    "MEAN_MOTION_DOT": 0.00010689,
    "MEAN_MOTION_DDOT": 0
  },
  {
    "OBJECT_NAME": "TIANMU-1 09",
    "OBJECT_ID": "2023-101C",
    "EPOCH": "2025-04-22T04:34:26.761728",
    "MEAN_MOTION": 15.24464072,
    "ECCENTRICITY": 0.0006662,
    "INCLINATION": 97.3101,
    "RA_OF_ASC_NODE": 166.8921,
    "ARG_OF_PERICENTER": 172.3087,
    "MEAN_ANOMALY": 187.8254,
    "EPHEMERIS_TYPE": 0,
    "CLASSIFICATION_TYPE": "U",
    "NORAD_CAT_ID": 57401,
    "ELEMENT_SET_NO": 999,
    "REV_AT_EPOCH": 9738,
    "BSTAR": 0.0004456,
    "MEAN_MOTION_DOT": 0.00010886,
    "MEAN_MOTION_DDOT": 0
  },
  {
    "OBJECT_NAME": "TIANMU-1 10",
    "OBJECT_ID": "2023-101D",
    "EPOCH": "2025-04-22T03:44:52.210176",
    "MEAN_MOTION": 15.24490959,
    "ECCENTRICITY": 0.0008587,
    "INCLINATION": 97.3182,
    "RA_OF_ASC_NODE": 167.4635,
    "ARG_OF_PERICENTER": 174.5304,
    "MEAN_ANOMALY": 185.6029,
    "EPHEMERIS_TYPE": 0,
    "CLASSIFICATION_TYPE": "U",
    "NORAD_CAT_ID": 57402,
    "ELEMENT_SET_NO": 999,
    "REV_AT_EPOCH": 9737,
    "BSTAR": 0.00048225,
    "MEAN_MOTION_DOT": 0.00011839,
    "MEAN_MOTION_DDOT": 2.8194e-8
  },
  {
    "OBJECT_NAME": "FENGYUN 3F",
    "OBJECT_ID": "2023-111A",
    "EPOCH": "2025-04-22T05:21:16.513920",
    "MEAN_MOTION": 14.2003078,
    "ECCENTRICITY": 0.0000342,
    "INCLINATION": 98.7291,
    "RA_OF_ASC_NODE": 183.9379,
    "ARG_OF_PERICENTER": 91.15,
    "MEAN_ANOMALY": 268.9716,
    "EPHEMERIS_TYPE": 0,
    "CLASSIFICATION_TYPE": "U",
    "NORAD_CAT_ID": 57490,
    "ELEMENT_SET_NO": 999,
    "REV_AT_EPOCH": 8912,
    "BSTAR": 0.000098455,
    "MEAN_MOTION_DOT": 0.00000166,
    "MEAN_MOTION_DDOT": 0
  },
  {
    "OBJECT_NAME": "ARKTIKA-M 2",
    "OBJECT_ID": "2023-198A",
    "EPOCH": "2025-04-21T13:01:51.014784",
    "MEAN_MOTION": 2.0061001,
    "ECCENTRICITY": 0.6880361,
    "INCLINATION": 63.2282,
    "RA_OF_ASC_NODE": 200.5877,
    "ARG_OF_PERICENTER": 269.0326,
    "MEAN_ANOMALY": 18.3455,
    "EPHEMERIS_TYPE": 0,
    "CLASSIFICATION_TYPE": "U",
    "NORAD_CAT_ID": 58584,
    "ELEMENT_SET_NO": 999,
    "REV_AT_EPOCH": 986,
    "BSTAR": 0,
    "MEAN_MOTION_DOT": 0.00000171,
    "MEAN_MOTION_DDOT": 0
  }
]