GOES 18                 
1 51850U 22021A   25112.22105663  .00000099  00000+0  00000+0 0  9998
2 51850   0.0128 101.3784 0000258 353.1502  58.5928  1.00270324 11581
NOAA 21 (JPSS-2)        
1 54234U 22150A   25111.88818695  .00000196  00000+0  11345-3 0  9993
2 54234  98.7242  51.4747 0001426   7.5566 352.5631 14.19580587126778
METEOSAT-12 (MTG-I1)    
1 54743U 22170C   25111.88918818 -.00000004  00000+0  00000+0 0  9999
2 54743   0.6296  33.5056 0001121 326.2685 170.2381  1.00268528  8751
TIANMU-1 03             
1 55973U 23039A   25112.18683138  .00020013  00000+0  60979-3 0  9994
2 55973  97.4961 269.9406 0004936 160.3919 199.7514 15.33998075116031
TIANMU-1 04             
1 55974U 23039B   25112.14133897  .00019978  00000+0  60455-3 0  9990
2 55974  97.4888 269.2139 0005870 158.2731 201.8762 15.34211382116021
TIANMU-1 05             
1 55975U 23039C   25112.22100517  .00019546  00000+0  59608-3 0  9992
2 55975  97.4935 269.7446 0004343 175.0428 185.0858 15.33976411116024
TIANMU-1 06             
1 55976U 23039D   25112.15449147  .00019663  00000+0  59362-3 0  9997
2 55976  97.4949 269.9697 0004778 173.8747 186.2554 15.34294912116028
METEOR-M2 3             
1 57166U 23091A   25112.22016897  .00000052  00000+0  41857-4 0  9991
2 57166  98.6656 169.4064 0003147 327.8030  32.2956 14.23993643 94605
TIANMU-1 07             
1 57399U 23101A   25112.17578790  .00011188  00000+0  45901-3 0  9995
2 57399  97.3157 167.3830 0004895 165.3807 194.7573 15.24390997 97383
TIANMU-1 08             
1 57400U 23101B   25112.20778042  .00010689  00000+0  43846-3 0  9995
2 57400  97.3147 167.2489 0006786 175.2251 184.9052 15.24398896 97387
TIANMU-1 09             
1 57401U 23101C   25112.19058752  .00010886  00000+0  44560-3 0  9996
2 57401  97.3101 166.8921 0006662 172.3087 187.8254 15.24464072 97388
TIANMU-1 10             
1 57402U 23101D   25112.15615984  .00011839  28194-7  48225-3 0  9992
2 57402  97.3182 167.4635 0008587 174.5304 185.6029 15.24490959 97379
FENGYUN 3F              
1 57490U 23111A   25112.22310780  .00000166  00000+0  98455-4 0  9994
2 57490  98.7291 183.9379 0000342  91.1500 268.9716 14.20030780 89122
ARKTIKA-M 2             
1 58584U 23198A   25111.54295156  .00000171  00000+0  00000+0 0  9997
2 58584  63.2282 200.5877 6880361 269.0326  18.3455  2.00610010  9863
